start=new Date('2022-03-08T00:00:00.000Z').valueOf();
sats=[{"EPOCH":"2022-03-07T22:00:00.999936","ECCENTRICITY":"0.00023760","COUNTRY_CODE":"US","TLE_LINE1":"1 50812U 22001K   22066.91667824  .00081315  00000-0  58022-3 0  9998","GP_ID":"198160242","APOAPSIS":"351.597","TIME_SYSTEM":"UTC","OBJECT_ID":"2022-001K","MEAN_MOTION_DOT":"0.00081315","SITE":"AFETR","ELEMENT_SET_NO":"999","MEAN_MOTION":"15.73116587","SEMIMAJOR_AXIS":"6728.133","REF_FRAME":"TEME","LAUNCH_DATE":"2022-01-06","PERIAPSIS":"348.399","REV_AT_EPOCH":"1073","NORAD_CAT_ID":"50812","DECAY_DATE":null,"MEAN_MOTION_DDOT":"0.0000000000000","OBJECT_TYPE":"PAYLOAD","RA_OF_ASC_NODE":"262.0338","FILE":"3349521","ARG_OF_PERICENTER":"28.1255","MEAN_ANOMALY":"139.1136","PERIOD":"91.538","BSTAR":"0.00058022000000","RCS_SIZE":"LARGE","EPHEMERIS_TYPE":"0","TLE_LINE2":"2 50812  53.2145 262.0338 0002376  28.1255 139.1136 15.73116587 10732","CLASSIFICATION_TYPE":"U","OBJECT_NAME":"STARLINK-3338","INCLINATION":"53.2145","MEAN_ELEMENT_THEORY":"SGP4","CENTER_NAME":"EARTH"},{"BSTAR":"0.00057263000000","EPHEMERIS_TYPE":"0","RCS_SIZE":"LARGE","TLE_LINE2":"2 50813  53.2142 262.0333 0002109  35.0867 131.5292 15.73123025 10739","CLASSIFICATION_TYPE":"U","MEAN_ELEMENT_THEORY":"SGP4","CENTER_NAME":"EARTH","INCLINATION":"53.2142","OBJECT_NAME":"STARLINK-3349","MEAN_MOTION_DDOT":"0.0000000000000","OBJECT_TYPE":"PAYLOAD","RA_OF_ASC_NODE":"262.0333","FILE":"3349544","ARG_OF_PERICENTER":"35.0867","PERIOD":"91.538","MEAN_ANOMALY":"131.5292","OBJECT_ID":"2022-001L","MEAN_MOTION_DOT":"0.00080254","ELEMENT_SET_NO":"999","MEAN_MOTION":"15.73123025","SITE":"AFETR","LAUNCH_DATE":"2022-01-06","SEMIMAJOR_AXIS":"6728.115","REF_FRAME":"TEME","REV_AT_EPOCH":"1073","PERIAPSIS":"348.561","NORAD_CAT_ID":"50813","DECAY_DATE":null,"ECCENTRICITY":"0.00021090","EPOCH":"2022-03-07T22:00:00.999936","COUNTRY_CODE":"US","TLE_LINE1":"1 50813U 22001L   22066.91667824  .00080254  00000-0  57263-3 0  9996","GP_ID":"198161253","APOAPSIS":"351.399","TIME_SYSTEM":"UTC"},{"PERIAPSIS":"393.848","REV_AT_EPOCH":"366","NORAD_CAT_ID":"50814","DECAY_DATE":null,"MEAN_MOTION_DOT":"-0.00568828","OBJECT_ID":"2022-001M","SITE":"AFETR","ELEMENT_SET_NO":"999","MEAN_MOTION":"15.57442176","SEMIMAJOR_AXIS":"6773.200","REF_FRAME":"TEME","LAUNCH_DATE":"2022-01-06","APOAPSIS":"396.281","TIME_SYSTEM":"UTC","EPOCH":"2022-03-07T22:00:00.999936","ECCENTRICITY":"0.00017960","COUNTRY_CODE":"US","TLE_LINE1":"1 50814U 22001M   22066.91667824 -.00568828  00000-0 -81611-2 0  9990","GP_ID":"198189770","CLASSIFICATION_TYPE":"U","OBJECT_NAME":"STARLINK-3324","INCLINATION":"53.2173","CENTER_NAME":"EARTH","MEAN_ELEMENT_THEORY":"SGP4","BSTAR":"-0.00816110000000","RCS_SIZE":"LARGE","EPHEMERIS_TYPE":"0","TLE_LINE2":"2 50814  53.2173 262.6871 0001796  36.6906 204.4452 15.57442176  3664","ARG_OF_PERICENTER":"36.6906","MEAN_ANOMALY":"204.4452","PERIOD":"92.459","MEAN_MOTION_DDOT":"0.0000000000000","RA_OF_ASC_NODE":"262.6871","OBJECT_TYPE":"PAYLOAD","FILE":"3349821"},{"ECCENTRICITY":"0.00019270","EPOCH":"2022-03-07T22:00:00.999936","COUNTRY_CODE":"US","TLE_LINE1":"1 50815U 22001N   22066.91667824 -.00575888  00000-0 -83882-2 0  9997","GP_ID":"198191021","APOAPSIS":"397.470","TIME_SYSTEM":"UTC","OBJECT_ID":"2022-001N","MEAN_MOTION_DOT":"-0.00575888","MEAN_MOTION":"15.57062968","ELEMENT_SET_NO":"999","SITE":"AFETR","LAUNCH_DATE":"2022-01-06","REF_FRAME":"TEME","SEMIMAJOR_AXIS":"6774.299","REV_AT_EPOCH":"366","PERIAPSIS":"394.859","NORAD_CAT_ID":"50815","DECAY_DATE":null,"MEAN_MOTION_DDOT":"0.0000000000000","OBJECT_TYPE":"PAYLOAD","RA_OF_ASC_NODE":"262.6912","FILE":"3349821","ARG_OF_PERICENTER":"35.6343","PERIOD":"92.482","MEAN_ANOMALY":"189.2892","BSTAR":"-0.00838820000000","EPHEMERIS_TYPE":"0","RCS_SIZE":"LARGE","TLE_LINE2":"2 50815  53.2170 262.6912 0001927  35.6343 189.2892 15.57062968  3663","CLASSIFICATION_TYPE":"U","CENTER_NAME":"EARTH","MEAN_ELEMENT_THEORY":"SGP4","OBJECT_NAME":"STARLINK-3234","INCLINATION":"53.2170"},{"ARG_OF_PERICENTER":"42.0318","PERIOD":"92.556","MEAN_ANOMALY":"134.6879","MEAN_MOTION_DDOT":"0.0000000000000","RA_OF_ASC_NODE":"262.6835","OBJECT_TYPE":"PAYLOAD","FILE":"3349821","CLASSIFICATION_TYPE":"U","CENTER_NAME":"EARTH","MEAN_ELEMENT_THEORY":"SGP4","OBJECT_NAME":"STARLINK-3342","INCLINATION":"53.2174","BSTAR":"-0.01104200000000","EPHEMERIS_TYPE":"0","RCS_SIZE":"LARGE","TLE_LINE2":"2 50816  53.2174 262.6835 0001711  42.0318 134.6879 15.55821181  3697","APOAPSIS":"400.928","TIME_SYSTEM":"UTC","ECCENTRICITY":"0.00017110","EPOCH":"2022-03-07T22:00:00.999936","GP_ID":"198190772","TLE_LINE1":"1 50816U 22001P   22066.91667824 -.00711381  00000-0 -11042-1 0  9996","COUNTRY_CODE":"US","PERIAPSIS":"398.609","REV_AT_EPOCH":"369","NORAD_CAT_ID":"50816","DECAY_DATE":null,"OBJECT_ID":"2022-001P","MEAN_MOTION_DOT":"-0.00711381","MEAN_MOTION":"15.55821181","ELEMENT_SET_NO":"999","SITE":"AFETR","LAUNCH_DATE":"2022-01-06","SEMIMAJOR_AXIS":"6777.904","REF_FRAME":"TEME"},{"MEAN_MOTION":"15.57303731","ELEMENT_SET_NO":"999","SITE":"AFETR","LAUNCH_DATE":"2022-01-06","SEMIMAJOR_AXIS":"6773.601","REF_FRAME":"TEME","MEAN_MOTION_DOT":"-0.00712878","OBJECT_ID":"2022-001Q","NORAD_CAT_ID":"50817","DECAY_DATE":null,"REV_AT_EPOCH":"369","PERIAPSIS":"394.203","TLE_LINE1":"1 50817U 22001Q   22066.91667824 -.00712878  00000-0 -10469-1 0  9991","COUNTRY_CODE":"US","GP_ID":"198189520","ECCENTRICITY":"0.00018650","EPOCH":"2022-03-07T22:00:00.999936","APOAPSIS":"396.730","TIME_SYSTEM":"UTC","TLE_LINE2":"2 50817  53.2176 262.6916 0001865  36.2138 194.0827 15.57303731  3696","BSTAR":"-0.01046900000000","EPHEMERIS_TYPE":"0","RCS_SIZE":"LARGE","MEAN_ELEMENT_THEORY":"SGP4","CENTER_NAME":"EARTH","OBJECT_NAME":"STARLINK-3341","INCLINATION":"53.2176","CLASSIFICATION_TYPE":"U","FILE":"3349821","MEAN_MOTION_DDOT":"0.0000000000000","OBJECT_TYPE":"PAYLOAD","RA_OF_ASC_NODE":"262.6916","ARG_OF_PERICENTER":"36.2138","PERIOD":"92.468","MEAN_ANOMALY":"194.0827"},{"PERIOD":"92.571","MEAN_ANOMALY":"134.7317","ARG_OF_PERICENTER":"30.1751","RA_OF_ASC_NODE":"262.6841","OBJECT_TYPE":"PAYLOAD","MEAN_MOTION_DDOT":"0.0000000000000","FILE":"3349821","CLASSIFICATION_TYPE":"U","CENTER_NAME":"EARTH","MEAN_ELEMENT_THEORY":"SGP4","OBJECT_NAME":"STARLINK-3336","INCLINATION":"53.2173","EPHEMERIS_TYPE":"0","RCS_SIZE":"LARGE","BSTAR":"-0.01114800000000","TLE_LINE2":"2 50818  53.2173 262.6841 0002063  30.1751 134.7317 15.55565563  3681","TIME_SYSTEM":"UTC","APOAPSIS":"401.910","ECCENTRICITY":"0.00020630","EPOCH":"2022-03-07T22:00:00.999936","TLE_LINE1":"1 50818U 22001R   22066.91667824 -.00711479  00000-0 -11148-1 0  9993","COUNTRY_CODE":"US","GP_ID":"198190270","REV_AT_EPOCH":"368","PERIAPSIS":"399.113","DECAY_DATE":null,"NORAD_CAT_ID":"50818","MEAN_MOTION_DOT":"-0.00711479","OBJECT_ID":"2022-001R","LAUNCH_DATE":"2022-01-06","SEMIMAJOR_AXIS":"6778.646","REF_FRAME":"TEME","ELEMENT_SET_NO":"999","MEAN_MOTION":"15.55565563","SITE":"AFETR"},{"PERIOD":"92.452","MEAN_ANOMALY":"210.7614","ARG_OF_PERICENTER":"35.6999","FILE":"3349821","OBJECT_TYPE":"PAYLOAD","RA_OF_ASC_NODE":"262.6856","MEAN_MOTION_DDOT":"0.0000000000000","MEAN_ELEMENT_THEORY":"SGP4","CENTER_NAME":"EARTH","INCLINATION":"53.2172","OBJECT_NAME":"STARLINK-3327","CLASSIFICATION_TYPE":"U","TLE_LINE2":"2 50819  53.2172 262.6856 0001877  35.6999 210.7614 15.57571799  3666","EPHEMERIS_TYPE":"0","RCS_SIZE":"LARGE","BSTAR":"-0.00814720000000","TIME_SYSTEM":"UTC","APOAPSIS":"395.960","TLE_LINE1":"1 50819U 22001S   22066.91667824 -.00570531  00000-0 -81472-2 0  9994","GP_ID":"198190522","COUNTRY_CODE":"US","ECCENTRICITY":"0.00018770","EPOCH":"2022-03-07T22:00:00.999936","DECAY_DATE":null,"NORAD_CAT_ID":"50819","PERIAPSIS":"393.418","REV_AT_EPOCH":"366","LAUNCH_DATE":"2022-01-06","SEMIMAJOR_AXIS":"6772.824","REF_FRAME":"TEME","MEAN_MOTION":"15.57571799","ELEMENT_SET_NO":"999","SITE":"AFETR","OBJECT_ID":"2022-001S","MEAN_MOTION_DOT":"-0.00570531"},{"MEAN_ELEMENT_THEORY":"SGP4","CENTER_NAME":"EARTH","INCLINATION":"53.2174","OBJECT_NAME":"STARLINK-3339","CLASSIFICATION_TYPE":"U","TLE_LINE2":"2 50820  53.2174 262.6830 0001916  34.7733 147.7953 15.55949052  3699","EPHEMERIS_TYPE":"0","RCS_SIZE":"LARGE","BSTAR":"-0.01099100000000","PERIOD":"92.548","MEAN_ANOMALY":"147.7953","ARG_OF_PERICENTER":"34.7733","FILE":"3349821","OBJECT_TYPE":"PAYLOAD","RA_OF_ASC_NODE":"262.6830","MEAN_MOTION_DDOT":"0.0000000000000","DECAY_DATE":null,"NORAD_CAT_ID":"50820","REV_AT_EPOCH":"369","PERIAPSIS":"398.099","LAUNCH_DATE":"2022-01-06","REF_FRAME":"TEME","SEMIMAJOR_AXIS":"6777.532","MEAN_MOTION":"15.55949052","ELEMENT_SET_NO":"999","SITE":"AFETR","OBJECT_ID":"2022-001T","MEAN_MOTION_DOT":"-0.00711509","TIME_SYSTEM":"UTC","APOAPSIS":"400.696","COUNTRY_CODE":"US","TLE_LINE1":"1 50820U 22001T   22066.91667824 -.00711509  00000-0 -10991-1 0  9995","GP_ID":"198191272","ECCENTRICITY":"0.00019160","EPOCH":"2022-03-07T22:00:00.999936"},{"COUNTRY_CODE":"US","TLE_LINE1":"1 50821U 22001U   22066.91667824 -.00711861  00000-0 -10789-1 0  9992","GP_ID":"198190020","EPOCH":"2022-03-07T22:00:00.999936","ECCENTRICITY":"0.00018590","TIME_SYSTEM":"UTC","APOAPSIS":"399.172","REF_FRAME":"TEME","SEMIMAJOR_AXIS":"6776.047","LAUNCH_DATE":"2022-01-06","SITE":"AFETR","MEAN_MOTION":"15.56460531","ELEMENT_SET_NO":"999","MEAN_MOTION_DOT":"-0.00711861","OBJECT_ID":"2022-001U","DECAY_DATE":null,"NORAD_CAT_ID":"50821","PERIAPSIS":"396.653","REV_AT_EPOCH":"369","FILE":"3349821","RA_OF_ASC_NODE":"262.6805","OBJECT_TYPE":"PAYLOAD","MEAN_MOTION_DDOT":"0.0000000000000","MEAN_ANOMALY":"168.6027","PERIOD":"92.518","ARG_OF_PERICENTER":"36.9774","TLE_LINE2":"2 50821  53.2175 262.6805 0001859  36.9774 168.6027 15.56460531  3693","RCS_SIZE":"LARGE","EPHEMERIS_TYPE":"0","BSTAR":"-0.01078900000000","OBJECT_NAME":"STARLINK-3346","INCLINATION":"53.2175","MEAN_ELEMENT_THEORY":"SGP4","CENTER_NAME":"EARTH","CLASSIFICATION_TYPE":"U"}];
